NORAD_CAT_ID,OBJECT_NAME,OBJECT_TYPE,EPOCH,MEAN_MOTION,ECCENTRICITY,INCLINATION,RA_OF_ASC_NODE,ARG_OF_PERICENTER,MEAN_ANOMALY,BSTAR,MEAN_MOTION_DOT,MEAN_MOTION_DDOT,TLE_LINE0,TLE_LINE1,TLE_LINE2,SEMIMAJOR_AXIS,PERIOD,APOGEE,PERIGEE,DECAYED
53027.0,STARLINK-4158,PAYLOAD,2023-04-07 15:37:32,15.08846061,0.0001296,53.2164,194.2425,96.2989,263.8151,0.00019241,2.776e-05,0.0,0 STARLINK-4158,1 53027U 22076AT  23097.65107003  .00002776  00000-0  19241-3 0  9999,2 53027  53.2164 194.2425 0001296  96.2989 263.8151 15.08846061 42379,6917.862,95.437,540.623,538.83,0.0
53027.0,STARLINK-4158,PAYLOAD,2023-04-08 05:56:01,15.08836972,0.0001254,53.2148,191.5674,96.1461,263.9674,3.277e-05,2.34e-06,0.0,0 STARLINK-4158,1 53027U 22076AT  23098.24723654  .00000234  00000-0  32770-4 0  9991,2 53027  53.2148 191.5674 0001254  96.1461 263.9674 15.08836972 42466,6917.89,95.438,540.622,538.887,0.0
53027.0,STARLINK-4158,PAYLOAD,2023-04-08 12:17:33,15.08839533,0.0001239,53.2143,190.3772,95.1175,264.9959,3.3498e-05,2.45e-06,0.0,0 STARLINK-4158,1 53027U 22076AT  23098.51219566  .00000245  00000-0  33498-4 0  9993,2 53027  53.2143 190.3772 0001239  95.1175 264.9959 15.08839533 42037,6917.882,95.438,540.604,538.89,0.0
53027.0,STARLINK-4158,PAYLOAD,2023-04-08 15:28:19,15.08845578,0.0001374,53.215,189.7816,95.649,264.4659,0.00010161,1.33e-05,0.0,0 STARLINK-4158,1 53027U 22076AT  23098.64467291  .00001330  00000-0  10161-3 0  9994,2 53027  53.2150 189.7816 0001374  95.6490 264.4659 15.08845578 42523,6917.863,95.437,540.679,538.778,0.0
53027.0,STARLINK-4158,PAYLOAD,2023-04-08 23:25:15,15.08838194,0.0001161,53.2155,188.2924,93.4929,266.6196,-1.0126e-05,-4.49e-06,0.0,0 STARLINK-4158,1 53027U 22076AT  23098.97587597 -.00000449  00000-0 -10126-4 0  9996,2 53027  53.2155 188.2924 0001161  93.4929 266.6196 15.08838194 42570,6917.886,95.438,540.554,538.948,0.0
53027.0,STARLINK-4158,PAYLOAD,2023-04-09 10:32:57,15.0883796,0.0001466,53.2149,186.2136,83.3273,276.7886,5.5458e-05,5.95e-06,0.0,0 STARLINK-4158,1 53027U 22076AT  23099.43955831  .00000595  00000-0  55458-4 0  9995,2 53027  53.2149 186.2136 0001466  83.3273 276.7886 15.08837960 42178,6917.887,95.438,540.766,538.737,0.0
53027.0,STARLINK-4158,PAYLOAD,2023-04-09 15:19:06,15.08843742,0.0001292,53.2143,185.3204,86.4598,273.6542,8.8589e-05,1.122e-05,0.0,0 STARLINK-4158,1 53027U 22076AT  23099.63827507  .00001122  00000-0  88589-4 0  9993,2 53027  53.2143 185.3204 0001292  86.4598 273.6542 15.08843742 42203,6917.869,95.437,540.628,538.84,0.0
53027.0,STARLINK-4158,PAYLOAD,2023-04-10 05:37:35,15.08837536,0.0001313,53.2148,182.6447,76.0273,284.0865,0.00017774,2.542e-05,0.0,0 STARLINK-4158,1 53027U 22076AT  23100.23443999  .00002542  00000-0  17774-3 0  9995,2 53027  53.2148 182.6447 0001313  76.0273 284.0865 15.08837536 42765,6917.888,95.438,540.661,538.845,0.0
53027.0,STARLINK-4158,PAYLOAD,2023-04-11 05:28:21,15.08846673,0.000131,53.2144,178.1852,71.0494,289.064,0.00017144,2.442e-05,0.0,0 STARLINK-4158,1 53027U 22076AT  23101.22803097  .00002442  00000-0  17144-3 0  9994,2 53027  53.2144 178.1852 0001310  71.0494 289.0640 15.08846673 42913,6917.86,95.437,540.631,538.819,0.0
53027.0,STARLINK-4158,PAYLOAD,2023-04-11 11:49:54,15.0885217,0.0001238,53.2142,176.9939,78.6223,281.4908,0.00014845,2.076e-05,0.0,0 STARLINK-4158,1 53027U 22076AT  23101.49298901  .00002076  00000-0  14845-3 0  9993,2 53027  53.2142 176.9939 0001238  78.6223 281.4908 15.08852170 42489,6917.843,95.437,540.565,538.852,0.0
53027.0,STARLINK-4158,PAYLOAD,2023-04-12 05:19:09,15.08839268,0.0001251,53.2143,173.724,82.2289,277.8845,-1.6912e-05,-5.57e-06,0.0,0 STARLINK-4158,1 53027U 22076AT  23102.22163424 -.00000557  00000-0 -16912-4 0  9998,2 53027  53.2143 173.7240 0001251  82.2289 277.8845 15.08839268 43065,6917.883,95.438,540.613,538.882,0.0
53027.0,STARLINK-4158,PAYLOAD,2023-04-12 11:40:41,15.08840785,0.0001391,53.2153,172.5353,91.442,268.6731,-2.1369e-05,-6.28e-06,0.0,0 STARLINK-4158,1 53027U 22076AT  23102.48659281 -.00000628  00000-0 -21369-4 0  9998,2 53027  53.2153 172.5353 0001391  91.4420 268.6731 15.08840785 42632,6917.878,95.438,540.705,538.781,0.0
53027.0,STARLINK-4158,PAYLOAD,2023-04-13 09:56:05,15.08839027,0.0001494,53.2162,168.3726,96.9136,263.2026,4.9036e-06,-2.1e-06,0.0,0 STARLINK-4158,1 53027U 22076AT  23103.41395806 -.00000210  00000-0  49036-5 0  9990,2 53027  53.2162 168.3726 0001494  96.9136 263.2026 15.08839027 42777,6917.883,95.438,540.782,538.715,0.0
53027.0,STARLINK-4158,PAYLOAD,2023-04-14 12:57:39,15.08838636,0.0001488,53.2151,163.3171,91.1228,268.9935,0.00023376,3.434e-05,0.0,0 STARLINK-4158,1 53027U 22076AT  23104.54003688  .00003434  00000-0  23376-3 0  9996,2 53027  53.2151 163.3171 0001488  91.1228 268.9935 15.08838636 42941,6917.885,95.438,540.779,538.72,0.0
53027.0,STARLINK-4158,PAYLOAD,2023-04-14 16:08:24,15.08850997,0.0001327,53.2149,162.7215,86.805,273.3094,0.00018534,2.664e-05,0.0,0 STARLINK-4158,1 53027U 22076AT  23104.67250932  .00002664  00000-0  18534-3 0  9990,2 53027  53.2149 162.7215 0001327  86.8050 273.3094 15.08850997 43431,6917.847,95.437,540.63,538.794,0.0
53027.0,STARLINK-4158,PAYLOAD,2023-04-15 08:02:17,15.08836803,0.0001486,53.214,159.7496,78.8332,281.2828,7.2021e-05,8.58e-06,0.0,0 STARLINK-4158,1 53027U 22076AT  23105.33492086  .00000858  00000-0  72021-4 0  9997,2 53027  53.2140 159.7496 0001486  78.8332 281.2828 15.08836803 43533,6917.89,95.438,540.783,538.727,0.0
53027.0,STARLINK-4158,PAYLOAD,2023-04-15 11:13:03,15.08841779,0.0001516,53.2142,159.1542,82.0237,278.0928,0.00011506,1.544e-05,0.0,0 STARLINK-4158,1 53027U 22076AT  23105.46739857  .00001544  00000-0  11506-3 0  9994,2 53027  53.2142 159.1542 0001516  82.0237 278.0928 15.08841779 43089,6917.875,95.437,540.789,538.691,0.0
53027.0,STARLINK-4158,PAYLOAD,2023-04-15 20:45:22,15.08833132,0.000108,53.2142,157.3694,94.0249,266.0866,-3.8763e-05,-9.05e-06,0.0,0 STARLINK-4158,1 53027U 22076AT  23105.86484036 -.00000905  00000-0 -38763-4 0  9991,2 53027  53.2142 157.3694 0001080  94.0249 266.0866 15.08833132 43148,6917.901,95.438,540.514,539.019,0.0
53027.0,STARLINK-4158,PAYLOAD,2023-04-16 09:28:27,15.0884349,0.0001414,53.2133,154.9904,92.0823,268.0331,0.00010723,1.419e-05,0.0,0 STARLINK-4158,1 53027U 22076AT  23106.39475747  .00001419  00000-0  10723-3 0  9993,2 53027  53.2133 154.9904 0001414  92.0823 268.0331 15.08843490 43699,6917.87,95.437,540.713,538.757,0.0
53027.0,STARLINK-4158,PAYLOAD,2023-04-16 20:36:09,15.08836325,0.0001446,53.213,152.9097,85.1834,274.9323,0.00015305,2.148e-05,0.0,0 STARLINK-4158,1 53027U 22076AT  23106.85844269  .00002148  00000-0  15305-3 0  9994,2 53027  53.2130 152.9097 0001446  85.1834 274.9323 15.08836325 43299,6917.892,95.438,540.757,538.756,0.0
53027.0,STARLINK-4158,PAYLOAD,2023-04-17 09:19:14,15.0883405,0.0001453,53.2134,150.5307,85.8182,274.2976,6.4166e-05,7.33e-06,0.0,0 STARLINK-4158,1 53027U 22076AT  23107.38836681  .00000733  00000-0  64166-4 0  9990,2 53027  53.2134 150.5307 0001453  85.8182 274.2976 15.08834050 43371,6917.899,95.438,540.769,538.758,0.0
53027.0,STARLINK-4158,PAYLOAD,2023-04-17 14:05:24,15.08839056,0.0001489,53.2135,149.6381,89.3472,270.7691,0.00016318,2.31e-05,0.0,0 STARLINK-4158,1 53027U 22076AT  23107.58708561  .00002310  00000-0  16318-3 0  9995,2 53027  53.2135 149.6381 0001489  89.3472 270.7691 15.08839056 43403,6917.883,95.438,540.778,538.718,0.0
53027.0,STARLINK-4158,PAYLOAD,2023-04-18 09:10:01,15.0884795,0.000146,53.2142,146.0673,102.9722,257.1433,0.00030905,4.635e-05,0.0,0 STARLINK-4158,1 53027U 22076AT  23108.38196309  .00004635  00000-0  30905-3 0  9995,2 53027  53.2142 146.0673 0001460 102.9722 257.1433 15.08847950 43523,6917.856,95.437,540.731,538.711,0.0
53027.0,STARLINK-4158,PAYLOAD,2023-04-18 13:56:10,15.08852887,0.0001514,53.2141,145.1745,105.7507,254.3652,0.00039999,6.086e-05,0.0,0 STARLINK-4158,1 53027U 22076AT  23108.58068063  .00006086  00000-0  39999-3 0  9996,2 53027  53.2141 145.1745 0001514 105.7507 254.3652 15.08852887 44027,6917.841,95.437,540.753,538.659,0.0
53027.0,STARLINK-4158,PAYLOAD,2023-04-19 09:00:48,15.08840948,0.0001375,53.2141,141.6079,96.4195,263.6954,0.00012817,1.753e-05,0.0,0 STARLINK-4158,1 53027U 22076AT  23109.37556635  .00001753  00000-0  12817-3 0  9997,2 53027  53.2141 141.6079 0001375  96.4195 263.6954 15.08840948 44148,6917.877,95.437,540.694,538.791,0.0
53027.0,STARLINK-4158,PAYLOAD,2023-04-19 18:33:07,15.0883507,0.0001355,53.2148,139.8225,96.0537,264.0609,-5.9049e-05,-1.227e-05,0.0,0 STARLINK-4158,1 53027U 22076AT  23109.77300629 -.00001227  00000-0 -59049-4 0  9998,2 53027  53.2148 139.8225 0001355  96.0537 264.0609 15.08835070 43737,6917.895,95.438,540.698,538.823,0.0
53027.0,STARLINK-4158,PAYLOAD,2023-04-20 08:51:35,15.08841091,0.0001392,53.2145,137.1448,98.0735,262.0415,0.00013829,1.914e-05,0.0,0 STARLINK-4158,1 53027U 22076AT  23110.36916464  .00001914  00000-0  13829-3 0  9991,2 53027  53.2145 137.1448 0001392  98.0735 262.0415 15.08841091 43828,6917.877,95.437,540.705,538.779,0.0
53027.0,STARLINK-4158,PAYLOAD,2023-04-20 13:37:45,15.08846815,0.0001329,53.2143,136.2532,96.0018,264.1125,0.00019975,2.893e-05,0.0,0 STARLINK-4158,1 53027U 22076AT  23110.56788243  .00002893  00000-0  19975-3 0  9990,2 53027  53.2143 136.2532 0001329  96.0018 264.1125 15.08846815 44328,6917.86,95.437,540.644,538.805,0.0
53027.0,STARLINK-4158,PAYLOAD,2023-04-20 18:23:54,15.08847085,0.0001372,53.2144,135.3611,96.4996,263.6152,0.00034191,5.159e-05,0.0,0 STARLINK-4158,1 53027U 22076AT  23110.76660312  .00005159  00000-0  34191-3 0  9993,2 53027  53.2144 135.3611 0001372  96.4996 263.6152 15.08847085 43888,6917.859,95.437,540.673,538.775,0.0
53027.0,STARLINK-4158,PAYLOAD,2023-04-21 11:53:09,15.08837104,0.0001264,53.2137,132.0906,88.7875,271.3262,0.00013901,1.925e-05,0.0,0 STARLINK-4158,1 53027U 22076AT  23111.49525044  .00001925  00000-0  13901-3 0  9999,2 53027  53.2137 132.0906 0001264  88.7875 271.3262 15.08837104 43992,6917.889,95.438,540.629,538.88,0.0
